<?xml version="1.0" encoding="UTF-8"?>
<kml xmlns="http://www.opengis.net/kml/2.2"><Document>
  <name>松江グランプリ コース</name>
  <description>Matsue Kart / 1周 9637m</description>
  <Style id="course"><LineStyle><color>ff4639e6</color><width>5</width></LineStyle></Style>
  <Style id="viaduct"><LineStyle><color>ffff863a</color><width>6</width></LineStyle></Style>
  <Placemark><name>コース</name><styleUrl>#course</styleUrl><LineString><tessellate>1</tessellate><coordinates>
133.062531,35.464631,0 133.062575,35.464637,0 133.062618,35.464642,0 133.062661,35.464649,0 133.062705,35.464655,0 133.062748,35.464661,0 133.062792,35.464668,0 133.062835,35.464673,0 133.062879,35.464679,0 133.062922,35.464685,0 133.062965,35.464691,0 133.06301,35.464697,0 133.063053,35.464703,0 133.063097,35.464709,0 133.06314,35.464714,0 133.063184,35.464721,0 133.063227,35.464726,0 133.063271,35.464732,0 133.063314,35.464737,0 133.063358,35.464742,0 133.063401,35.464749,0 133.063445,35.464754,0 133.063488,35.464759,0 133.063532,35.464765,0 133.063575,35.46477,0 133.063619,35.464776,0 133.063664,35.464781,0 133.063707,35.464786,0 133.063751,35.464792,0 133.063794,35.464796,0 133.063838,35.464801,0 133.063882,35.464805,0 133.063926,35.464808,0 133.063969,35.464812,0 133.064013,35.464814,0 133.064057,35.464817,0 133.064101,35.464821,0 133.064146,35.464823,0 133.06419,35.464828,0 133.064233,35.464832,0 133.064277,35.464836,0 133.064321,35.464841,0 133.064364,35.464847,0 133.064408,35.464852,0 133.064451,35.464858,0 133.064495,35.464863,0 133.064538,35.464868,0 133.064582,35.464874,0 133.064625,35.464879,0 133.064669,35.464885,0 133.064712,35.464891,0 133.064757,35.464896,0 133.0648,35.464903,0 133.064843,35.464911,0 133.064886,35.464922,0 133.064925,35.464935,0 133.064964,35.464954,0 133.064996,35.464978,0 133.065022,35.465006,0 133.065041,35.46504,0 133.065053,35.465074,0 133.065061,35.465109,0 133.065064,35.465145,0 133.065067,35.465181,0 133.065068,35.465217,0 133.065068,35.465253,0 133.065069,35.465289,0 133.06507,35.465325,0 133.065071,35.465362,0 133.065073,35.465398,0 133.065075,35.465434,0 133.065079,35.46547,0 133.065081,35.465506,0 133.065084,35.465542,0 133.065086,35.465578,0 133.065087,35.465614,0 133.065089,35.46565,0 133.06509,35.465686,0 133.065091,35.465722,0 133.065092,35.465758,0 133.065093,35.465794,0 133.065095,35.46583,0 133.065097,35.465866,0 133.065101,35.465901,0 133.065103,35.465937,0 133.065106,35.465974,0 133.065108,35.46601,0 133.065111,35.466046,0 133.065113,35.466082,0 133.065115,35.466118,0 133.065117,35.466154,0 133.065119,35.46619,0 133.065123,35.466226,0 133.065125,35.466262,0 133.065128,35.466298,0 133.065131,35.466334,0 133.065133,35.46637,0 133.065135,35.466406,0 133.065137,35.466442,0 133.065139,35.466478,0 133.065142,35.466513,0 133.065145,35.466549,0 133.065147,35.466585,0 133.06515,35.466622,0 133.065153,35.466658,0 133.065155,35.466694,0 133.065156,35.46673,0 133.065158,35.466766,0 133.06516,35.466802,0 133.065162,35.466838,0 133.065165,35.466874,0 133.065168,35.46691,0 133.065171,35.466946,0 133.065174,35.466982,0 133.065177,35.467018,0 133.06518,35.467053,0 133.065182,35.467089,0 133.065186,35.467125,0 133.065189,35.467161,0 133.065191,35.467197,0 133.065194,35.467234,0 133.065197,35.46727,0 133.065199,35.467306,0 133.065201,35.467342,0 133.065203,35.467378,0 133.065206,35.467414,0 133.065208,35.46745,0 133.065211,35.467486,0 133.065213,35.467522,0 133.065217,35.467557,0 133.065219,35.467593,0 133.065222,35.467629,0 133.065224,35.467665,0 133.065226,35.467701,0 133.06523,35.467737,0 133.065233,35.467773,0 133.065235,35.467809,0 133.065239,35.467846,0 133.065241,35.467882,0 133.065243,35.467918,0 133.065245,35.467954,0 133.065247,35.46799,0 133.06525,35.468026,0 133.065252,35.468061,0 133.065255,35.468097,0 133.065257,35.468133,0 133.065261,35.468169,0 133.065263,35.468205,0 133.065265,35.468241,0 133.065267,35.468277,0 133.065269,35.468313,0 133.065273,35.468349,0 133.065275,35.468385,0 133.065278,35.468421,0 133.065281,35.468458,0 133.065283,35.468494,0 133.065285,35.46853,0 133.065286,35.468566,0 133.065287,35.468602,0 133.065288,35.468638,0 133.065288,35.468674,0 133.065289,35.46871,0 133.06529,35.468746,0 133.065293,35.468782,0 133.065295,35.468817,0 133.065297,35.468853,0 133.0653,35.468889,0 133.065303,35.468925,0 133.065305,35.468961,0 133.065307,35.468997,0 133.065308,35.469033,0 133.065309,35.469069,0 133.06531,35.469106,0 133.06531,35.469142,0 133.065311,35.469178,0 133.065311,35.469214,0 133.065311,35.46925,0 133.06531,35.469286,0 133.06531,35.469322,0 133.065308,35.469358,0 133.065306,35.469394,0 133.065304,35.46943,0 133.0653,35.469466,0 133.065297,35.469502,0 133.065294,35.469538,0 133.065292,35.469574,0 133.065288,35.469609,0 133.065285,35.469645,0 133.065283,35.469681,0 133.065279,35.469718,0 133.065276,35.469754,0 133.065272,35.46979,0 133.065268,35.469826,0 133.065264,35.469862,0 133.06526,35.469897,0 133.065255,35.469933,0 133.065251,35.469969,0 133.065246,35.470005,0 133.065241,35.470041,0 133.065235,35.470076,0 133.06523,35.470112,0 133.065224,35.470148,0 133.065219,35.470184,0 133.065212,35.47022,0 133.065206,35.470255,0 133.065198,35.470291,0 133.065189,35.470326,0 133.065179,35.470361,0 133.065165,35.470395,0 133.065147,35.470428,0 133.065124,35.470458,0 133.065095,35.470485,0 133.06506,35.470508,0 133.065021,35.470524,0 133.064979,35.470537,0 133.064936,35.470545,0 133.064893,35.470551,0 133.064849,35.470556,0 133.064805,35.470559,0 133.064762,35.470562,0 133.064718,35.470565,0 133.064674,35.470567,0 133.06463,35.47057,0 133.064586,35.470574,0 133.064542,35.470576,0 133.064497,35.470579,0 133.064453,35.470582,0 133.064409,35.470585,0 133.064366,35.470587,0 133.064322,35.47059,0 133.064278,35.470593,0 133.064234,35.470596,0 133.06419,35.470599,0 133.064146,35.470602,0 133.064101,35.470604,0 133.064057,35.470608,0 133.064014,35.470611,0 133.06397,35.470613,0 133.063926,35.470616,0 133.063882,35.470618,0 133.063838,35.470621,0 133.063794,35.470623,0 133.06375,35.470626,0 133.063706,35.470629,0 133.063661,35.470631,0 133.063618,35.470633,0 133.063574,35.470636,0 133.06353,35.470639,0 133.063486,35.470642,0 133.063442,35.470645,0 133.063398,35.470649,0 133.063354,35.470652,0 133.063311,35.470657,0 133.063267,35.470661,0 133.063222,35.470665,0 133.063179,35.470669,0 133.063135,35.470675,0 133.063091,35.470679,0 133.063048,35.470686,0 133.063004,35.470691,0 133.062961,35.470697,0 133.062918,35.470704,0 133.062874,35.470708,0 133.06283,35.470713,0 133.062786,35.470715,0 133.062742,35.470716,0 133.062697,35.470716,0 133.062653,35.470715,0 133.062609,35.470713,0 133.062565,35.470712,0 133.062522,35.470709,0 133.062478,35.470707,0 133.062434,35.470704,0 133.06239,35.470703,0 133.062346,35.4707,0 133.062301,35.470698,0 133.062257,35.470695,0 133.062213,35.470694,0 133.062169,35.470693,0 133.062125,35.470691,0 133.062081,35.470691,0 133.062037,35.47069,0 133.061993,35.47069,0 133.061949,35.47069,0 133.061904,35.470691,0 133.06186,35.470692,0 133.061816,35.470694,0 133.061772,35.470696,0 133.061728,35.4707,0 133.061685,35.470704,0 133.061641,35.470708,0 133.061597,35.470712,0 133.061553,35.470716,0 133.06151,35.470719,0 133.061465,35.470722,0 133.061421,35.470723,0 133.061377,35.470725,0 133.061333,35.470725,0 133.061289,35.470725,0 133.061245,35.470724,0 133.061201,35.470722,0 133.061157,35.470721,0 133.061113,35.470719,0 133.061068,35.470716,0 133.061024,35.470713,0 133.06098,35.470712,0 133.060936,35.470709,0 133.060892,35.470706,0 133.060849,35.470703,0 133.060805,35.470698,0 133.060761,35.470693,0 133.060718,35.470687,0 133.060674,35.470681,0 133.060631,35.470675,0 133.060588,35.470669,0 133.060543,35.470664,0 133.060499,35.47066,0 133.060455,35.470657,0 133.060411,35.470654,0 133.060368,35.470652,0 133.060324,35.47065,0 133.06028,35.470648,0 133.060236,35.470645,0 133.060192,35.470643,0 133.060147,35.47064,0 133.060103,35.470638,0 133.060059,35.470635,0 133.060015,35.470632,0 133.059971,35.470631,0 133.059927,35.470628,0 133.059884,35.470625,0 133.05984,35.470622,0 133.059796,35.470621,0 133.059751,35.470619,0 133.059707,35.470616,0 133.059663,35.470613,0 133.059619,35.470611,0 133.059575,35.470607,0 133.059532,35.470604,0 133.059488,35.470599,0 133.059444,35.470594,0 133.059401,35.470587,0 133.059358,35.47058,0 133.059315,35.470572,0 133.059272,35.470562,0 133.05923,35.470552,0 133.059188,35.47054,0 133.059146,35.470529,0 133.059105,35.470515,0 133.059064,35.470501,0 133.059025,35.470486,0 133.058985,35.47047,0 133.058945,35.470454,0 133.058907,35.470437,0 133.058869,35.470419,0 133.058831,35.4704,0 133.058793,35.470382,0 133.058754,35.470363,0 133.058717,35.470346,0 133.058677,35.470329,0 133.058638,35.470312,0 133.058598,35.470298,0 133.058556,35.470286,0 133.058514,35.470276,0 133.05847,35.470269,0 133.058427,35.470265,0 133.058383,35.470261,0 133.058339,35.470259,0 133.058295,35.470258,0 133.05825,35.470258,0 133.058206,35.470259,0 133.058162,35.470261,0 133.058118,35.470263,0 133.058074,35.470265,0 133.05803,35.470267,0 133.057986,35.470269,0 133.057942,35.470271,0 133.057897,35.470272,0 133.057853,35.470273,0 133.057809,35.470272,0 133.057765,35.470271,0 133.057721,35.470269,0 133.057678,35.470267,0 133.057634,35.470265,0 133.05759,35.470262,0 133.057546,35.470259,0 133.057501,35.470257,0 133.057457,35.470254,0 133.057413,35.47025,0 133.057369,35.470247,0 133.057326,35.470243,0 133.057282,35.470238,0 133.057238,35.470234,0 133.057195,35.470229,0 133.057151,35.470224,0 133.057107,35.47022,0 133.057064,35.470215,0 133.05702,35.470211,0 133.056975,35.470206,0 133.056932,35.470201,0 133.056888,35.470196,0 133.056844,35.470191,0 133.056801,35.470185,0 133.056757,35.470179,0 133.056714,35.470174,0 133.056671,35.470166,0 133.056627,35.47016,0 133.056584,35.470155,0 133.05654,35.470149,0 133.056497,35.470144,0 133.056453,35.47014,0 133.056408,35.470137,0 133.056364,35.470135,0 133.05632,35.470133,0 133.056276,35.470132,0 133.056232,35.470131,0 133.056188,35.470131,0 133.056144,35.470131,0 133.0561,35.470131,0 133.056056,35.470131,0 133.056011,35.470131,0 133.055967,35.470131,0 133.055923,35.470131,0 133.055879,35.470131,0 133.055835,35.470131,0 133.055791,35.470131,0 133.055747,35.470131,0 133.055703,35.470131,0 133.055658,35.47013,0 133.055614,35.47013,0 133.05557,35.470129,0 133.055526,35.470128,0 133.055482,35.470126,0 133.055438,35.470123,0 133.055395,35.470121,0 133.055351,35.470119,0 133.055307,35.470117,0 133.055263,35.470116,0 133.055218,35.470115,0 133.055174,35.470115,0 133.05513,35.470116,0 133.055086,35.470117,0 133.055042,35.470119,0 133.054998,35.470121,0 133.054954,35.470123,0 133.05491,35.470126,0 133.054865,35.470128,0 133.054821,35.470129,0 133.054777,35.47013,0 133.054733,35.470131,0 133.054689,35.470133,0 133.054645,35.470134,0 133.054601,35.470136,0 133.054557,35.470138,0 133.054513,35.47014,0 133.05447,35.470142,0 133.054425,35.470145,0 133.054381,35.470147,0 133.054337,35.470148,0 133.054293,35.470149,0 133.054249,35.470151,0 133.054205,35.470153,0 133.054161,35.470155,0 133.054117,35.470157,0 133.054072,35.470159,0 133.054028,35.470162,0 133.053984,35.470164,0 133.05394,35.470165,0 133.053896,35.470167,0 133.053852,35.470169,0 133.053808,35.470171,0 133.053764,35.470173,0 133.05372,35.470175,0 133.053677,35.470177,0 133.053632,35.47018,0 133.053588,35.470182,0 133.053544,35.470184,0 133.0535,35.470185,0 133.053456,35.470188,0 133.053412,35.47019,0 133.053368,35.470192,0 133.053324,35.470194,0 133.053279,35.470196,0 133.053235,35.470199,0 133.053191,35.470201,0 133.053147,35.470202,0 133.053103,35.470204,0 133.05306,35.470207,0 133.053016,35.470209,0 133.052972,35.470211,0 133.052928,35.470213,0 133.052883,35.470216,0 133.052839,35.470219,0 133.052795,35.470222,0 133.052751,35.470225,0 133.052707,35.470228,0 133.052663,35.47023,0 133.05262,35.470232,0 133.052576,35.470235,0 133.052532,35.470237,0 133.052488,35.470238,0 133.052443,35.47024,0 133.052399,35.470243,0 133.052355,35.470245,0 133.052311,35.470247,0 133.052267,35.47025,0 133.052223,35.470255,0 133.05218,35.470261,0 133.052137,35.470269,0 133.052096,35.470283,0 133.052057,35.470301,0 133.052025,35.470325,0 133.052001,35.470355,0 133.051982,35.470387,0 133.05197,35.470422,0 133.051963,35.470458,0 133.051956,35.470494,0 133.051953,35.47053,0 133.051949,35.470565,0 133.051947,35.470601,0 133.051945,35.470637,0 133.051944,35.470673,0 133.051943,35.470709,0 133.051943,35.470745,0 133.051943,35.470781,0 133.051943,35.470817,0 133.051943,35.470853,0 133.051943,35.470889,0 133.051943,35.470925,0 133.051943,35.470961,0 133.051943,35.470997,0 133.051943,35.471033,0 133.051943,35.471069,0 133.051943,35.471106,0 133.051943,35.471142,0 133.051943,35.471178,0 133.051943,35.471214,0 133.051943,35.47125,0 133.051944,35.471286,0 133.051944,35.471322,0 133.051945,35.471358,0 133.051947,35.471394,0 133.051949,35.47143,0 133.051952,35.471466,0 133.051955,35.471502,0 133.051957,35.471538,0 133.051959,35.471574,0 133.051961,35.47161,0 133.051963,35.471646,0 133.051964,35.471682,0 133.051965,35.471718,0 133.051965,35.471754,0 133.051966,35.471791,0 133.051967,35.471827,0 133.051968,35.471863,0 133.05197,35.471899,0 133.051972,35.471935,0 133.051975,35.471971,0 133.051978,35.472007,0 133.051981,35.472043,0 133.051983,35.472078,0 133.051987,35.472114,0 133.05199,35.47215,0 133.051992,35.472186,0 133.051996,35.472222,0 133.051999,35.472258,0 133.052002,35.472294,0 133.052004,35.47233,0 133.052008,35.472366,0 133.052011,35.472403,0 133.052014,35.472438,0 133.052018,35.472474,0 133.052021,35.47251,0 133.052024,35.472546,0 133.052028,35.472582,0 133.052031,35.472618,0 133.052034,35.472654,0 133.052038,35.47269,0 133.052041,35.472726,0 133.052044,35.472761,0 133.052047,35.472797,0 133.052051,35.472833,0 133.052054,35.472869,0 133.052058,35.472905,0 133.052064,35.472942,0 133.052072,35.472977,0 133.052083,35.473012,0 133.052097,35.473046,0 133.052116,35.473079,0 133.052139,35.473109,0 133.052168,35.473136,0 133.052202,35.473159,0 133.052239,35.473178,0 133.05228,35.473191,0 133.052323,35.473201,0 133.052366,35.473207,0 133.05241,35.473211,0 133.052454,35.473213,0 133.052499,35.473213,0 133.052543,35.473213,0 133.052587,35.473213,0 133.052631,35.473212,0 133.052675,35.47321,0 133.052719,35.473208,0 133.052763,35.473206,0 133.052807,35.473204,0 133.05285,35.473202,0 133.052895,35.4732,0 133.052939,35.473198,0 133.052983,35.473197,0 133.053027,35.473197,0 133.053071,35.473196,0 133.053115,35.473196,0 133.053159,35.473195,0 133.053203,35.473195,0 133.053247,35.473194,0 133.053292,35.473192,0 133.053336,35.47319,0 133.05338,35.473188,0 133.053424,35.473186,0 133.053468,35.473184,0 133.053512,35.473181,0 133.053556,35.47318,0 133.0536,35.473179,0 133.053645,35.473177,0 133.053689,35.473175,0 133.053733,35.473173,0 133.053777,35.473171,0 133.053821,35.473169,0 133.053865,35.473167,0 133.053908,35.473164,0 133.053952,35.473162,0 133.053996,35.473161,0 133.05404,35.47316,0 133.054085,35.473161,0 133.054129,35.473163,0 133.054172,35.47317,0 133.054214,35.473182,0 133.054251,35.473201,0 133.054282,35.473226,0 133.054304,35.473257,0 133.054321,35.473291,0 133.054332,35.473325,0 133.054338,35.473362,0 133.054344,35.473398,0 133.054347,35.473434,0 133.05435,35.473469,0 133.054353,35.473505,0 133.054356,35.473541,0 133.054359,35.473577,0 133.054363,35.473613,0 133.054365,35.473649,0 133.054368,35.473685,0 133.05437,35.473721,0 133.054374,35.473757,0 133.054377,35.473793,0 133.054379,35.473829,0 133.054382,35.473864,0 133.054386,35.4739,0 133.054389,35.473937,0 133.054391,35.473973,0 133.054395,35.474009,0 133.054397,35.474045,0 133.0544,35.474081,0 133.054403,35.474117,0 133.054406,35.474153,0 133.054409,35.474189,0 133.054411,35.474225,0 133.054413,35.474261,0 133.054415,35.474297,0 133.054419,35.474332,0 133.054421,35.474368,0 133.054423,35.474404,0 133.054427,35.47444,0 133.05443,35.474476,0 133.054432,35.474512,0 133.054435,35.474549,0 133.054439,35.474585,0 133.054441,35.474621,0 133.054444,35.474657,0 133.054447,35.474693,0 133.05445,35.474728,0 133.054453,35.474764,0 133.054456,35.4748,0 133.054458,35.474836,0 133.054462,35.474872,0 133.054465,35.474908,0 133.054467,35.474944,0 133.054471,35.47498,0 133.054474,35.475016,0 133.054476,35.475052,0 133.054479,35.475088,0 133.054483,35.475124,0 133.054485,35.47516,0 133.054488,35.475196,0 133.054492,35.475232,0 133.054494,35.475268,0 133.054497,35.475304,0 133.0545,35.47534,0 133.054503,35.475376,0 133.054506,35.475412,0 133.054507,35.475448,0 133.054508,35.475484,0 133.054507,35.47552,0 133.054502,35.475555,0 133.05449,35.47559,0 133.054473,35.475624,0 133.054447,35.475654,0 133.054418,35.475679,0 133.054383,35.475701,0 133.054347,35.475723,0 133.054311,35.475744,0 133.054277,35.475766,0 133.054246,35.475791,0 133.054221,35.475821,0 133.054204,35.475855,0 133.054194,35.47589,0 133.054188,35.475926,0 133.054185,35.475962,0 133.054182,35.475997,0 133.054176,35.476033,0 133.054165,35.476068,0 133.054146,35.476101,0 133.05412,35.476129,0 133.054087,35.476153,0 133.054049,35.476171,0 133.054008,35.476184,0 133.053965,35.476194,0 133.053922,35.476202,0 133.053879,35.476208,0 133.053835,35.476212,0 133.053791,35.476217,0 133.053747,35.47622,0 133.053704,35.476223,0 133.05366,35.476227,0 133.053616,35.476229,0 133.053572,35.476232,0 133.053528,35.476236,0 133.053483,35.476238,0 133.053439,35.476241,0 133.053396,35.476245,0 133.053352,35.476247,0 133.053308,35.476251,0 133.053264,35.476255,0 133.05322,35.476257,0 133.053176,35.476261,0 133.053133,35.476265,0 133.053089,35.476268,0 133.053045,35.476272,0 133.053,35.476275,0 133.052956,35.476278,0 133.052913,35.476283,0 133.052869,35.476286,0 133.052825,35.476292,0 133.052782,35.476298,0 133.052739,35.476307,0 133.052697,35.476317,0 133.052655,35.47633,0 133.052615,35.476345,0 133.052577,35.476362,0 133.052539,35.476381,0 133.052504,35.476403,0 133.05247,35.476426,0 133.052438,35.47645,0 133.052407,35.476476,0 133.052377,35.476503,0 133.052349,35.476531,0 133.052322,35.476559,0 133.052297,35.476588,0 133.052272,35.476618,0 133.052248,35.476649,0 133.052226,35.47668,0 133.052204,35.476711,0 133.052182,35.476742,0 133.05216,35.476774,0 133.052139,35.476805,0 133.052118,35.476837,0 133.052096,35.476868,0 133.052075,35.4769,0 133.052054,35.476932,0 133.052034,35.476964,0 133.052013,35.476996,0 133.051992,35.477027,0 133.051972,35.47706,0 133.051953,35.477092,0 133.051933,35.477124,0 133.051914,35.477156,0 133.051894,35.477188,0 133.051875,35.477222,0 133.051857,35.477254,0 133.051837,35.477287,0 133.051818,35.477319,0 133.051798,35.477351,0 133.051778,35.477383,0 133.051757,35.477415,0 133.051736,35.477446,0 133.051714,35.477478,0 133.05169,35.477508,0 133.051666,35.477538,0 133.051639,35.477567,0 133.051613,35.477596,0 133.051585,35.477624,0 133.051556,35.477651,0 133.051527,35.477678,0 133.051496,35.477704,0 133.051465,35.47773,0 133.051434,35.477755,0 133.051403,35.477782,0 133.051372,35.477807,0 133.05134,35.477832,0 133.051309,35.477856,0 133.051277,35.477882,0 133.051245,35.477906,0 133.051213,35.47793,0 133.051179,35.477955,0 133.051147,35.47798,0 133.051114,35.478003,0 133.051081,35.478028,0 133.051049,35.478052,0 133.051016,35.478076,0 133.050983,35.4781,0 133.05095,35.478124,0 133.050917,35.478147,0 133.050884,35.478171,0 133.05085,35.478194,0 133.050817,35.478218,0 133.050782,35.478241,0 133.050748,35.478264,0 133.050714,35.478286,0 133.050679,35.478308,0 133.050643,35.47833,0 133.050608,35.478352,0 133.050573,35.478373,0 133.050538,35.478394,0 133.050501,35.478415,0 133.050466,35.478437,0 133.050431,35.478458,0 133.050394,35.478479,0 133.050359,35.478501,0 133.050324,35.478522,0 133.050288,35.478544,0 133.050253,35.478566,0 133.050218,35.478587,0 133.050184,35.478609,0 133.050148,35.478631,0 133.050113,35.478653,0 133.050078,35.478675,0 133.050042,35.478696,0 133.050007,35.478717,0 133.049971,35.478739,0 133.049934,35.478759,0 133.049899,35.47878,0 133.049863,35.4788,0 133.049825,35.47882,0 133.049789,35.47884,0 133.049751,35.478859,0 133.049715,35.478879,0 133.049677,35.478898,0 133.04964,35.478917,0 133.049602,35.478936,0 133.049564,35.478953,0 133.049524,35.47897,0 133.049484,35.478987,0 133.049445,35.479001,0 133.049404,35.479015,0 133.049362,35.479027,0 133.04932,35.479038,0 133.049278,35.479049,0 133.049236,35.479059,0 133.049193,35.479069,0 133.04915,35.479077,0 133.049107,35.479084,0 133.049063,35.479088,0 133.049019,35.479088,0 133.048976,35.479081,0 133.048936,35.479066,0 133.048902,35.479042,0 133.048874,35.479015,0 133.04885,35.478985,0 133.048828,35.478953,0 133.048807,35.478922,0 133.048786,35.47889,0 133.048765,35.478859,0 133.048743,35.478827,0 133.048721,35.478796,0 133.048698,35.478766,0 133.048675,35.478735,0 133.04865,35.478704,0 133.048626,35.478674,0 133.048603,35.478644,0 133.048579,35.478613,0 133.048554,35.478584,0 133.04853,35.478554,0 133.048506,35.478523,0 133.048482,35.478494,0 133.048457,35.478463,0 133.048433,35.478433,0 133.04841,35.478403,0 133.048386,35.478372,0 133.048363,35.478341,0 133.048339,35.478311,0 133.048318,35.478279,0 133.048297,35.478247,0 133.048278,35.478215,0 133.04826,35.478182,0 133.048245,35.478148,0 133.04823,35.478114,0 133.048218,35.47808,0 133.048208,35.478045,0 133.0482,35.478009,0 133.048194,35.477974,0 133.048189,35.477937,0 133.048188,35.477901,0 133.048189,35.477865,0 133.048195,35.477829,0 133.048204,35.477794,0 133.048216,35.47776,0 133.04823,35.477726,0 133.048243,35.477691,0 133.048257,35.477657,0 133.048268,35.477622,0 133.048275,35.477586,0 133.048279,35.477551,0 133.04828,35.477515,0 133.04828,35.477479,0 133.048277,35.477443,0 133.048273,35.477407,0 133.04827,35.477371,0 133.048265,35.477334,0 133.048262,35.477298,0 133.048258,35.477262,0 133.048254,35.477227,0 133.04825,35.477191,0 133.048247,35.477155,0 133.048243,35.477119,0 133.048241,35.477083,0 133.048238,35.477047,0 133.048235,35.477011,0 133.048232,35.476975,0 133.048229,35.476939,0 133.048226,35.476903,0 133.048224,35.476868,0 133.04822,35.476832,0 133.048218,35.476795,0 133.048215,35.476759,0 133.048213,35.476723,0 133.048209,35.476687,0 133.048207,35.476651,0 133.048204,35.476615,0 133.048202,35.476579,0 133.048198,35.476543,0 133.048195,35.476507,0 133.048193,35.476471,0 133.048189,35.476436,0 133.048186,35.4764,0 133.048184,35.476364,0 133.048181,35.476328,0 133.048177,35.476292,0 133.048175,35.476256,0 133.048172,35.47622,0 133.048168,35.476184,0 133.048166,35.476147,0 133.048163,35.476111,0 133.04816,35.476075,0 133.048157,35.476039,0 133.048155,35.476004,0 133.048154,35.475968,0 133.048153,35.475932,0 133.048154,35.475896,0 133.048157,35.47586,0 133.048162,35.475824,0 133.048168,35.475788,0 133.048178,35.475753,0 133.04819,35.475718,0 133.048205,35.475684,0 133.048221,35.475651,0 133.048241,35.475618,0 133.048262,35.475587,0 133.048283,35.475555,0 133.048306,35.475525,0 133.048329,35.475494,0 133.048352,35.475462,0 133.048372,35.475431,0 133.048391,35.475398,0 133.048409,35.475365,0 133.048423,35.475331,0 133.048435,35.475297,0 133.048443,35.475261,0 133.04845,35.475225,0 133.048453,35.475189,0 133.048455,35.475153,0 133.048456,35.475117,0 133.048456,35.475081,0 133.048456,35.475045,0 133.048454,35.475009,0 133.048453,35.474973,0 133.048451,35.474937,0 133.048447,35.474901,0 133.048445,35.474865,0 133.048442,35.47483,0 133.04844,35.474794,0 133.048438,35.474758,0 133.048435,35.474722,0 133.048433,35.474686,0 133.048431,35.474649,0 133.048429,35.474613,0 133.048425,35.474577,0 133.048423,35.474541,0 133.04842,35.474505,0 133.048418,35.474469,0 133.048415,35.474433,0 133.048413,35.474397,0 133.04841,35.474361,0 133.048408,35.474325,0 133.048406,35.474289,0 133.048402,35.474254,0 133.0484,35.474218,0 133.048397,35.474182,0 133.048395,35.474146,0 133.048392,35.47411,0 133.04839,35.474074,0 133.048387,35.474037,0 133.048385,35.474001,0 133.048382,35.473965,0 133.04838,35.473929,0 133.048379,35.473893,0 133.048379,35.473857,0 133.048379,35.473821,0 133.04838,35.473785,0 133.048382,35.473749,0 133.048385,35.473713,0 133.048387,35.473677,0 133.048388,35.473641,0 133.048389,35.473605,0 133.04839,35.473569,0 133.048389,35.473533,0 133.048387,35.473497,0 133.048382,35.473462,0 133.048375,35.473426,0 133.048361,35.473391,0 133.048342,35.473359,0 133.048316,35.47333,0 133.048283,35.473306,0 133.048246,35.473288,0 133.048204,35.473276,0 133.048161,35.473269,0 133.048117,35.473265,0 133.048072,35.473264,0 133.048028,35.473264,0 133.047984,35.473265,0 133.04794,35.473265,0 133.047896,35.473265,0 133.047852,35.473264,0 133.047808,35.473262,0 133.047764,35.47326,0 133.04772,35.473258,0 133.047675,35.473255,0 133.047632,35.473253,0 133.047588,35.473252,0 133.047544,35.473252,0 133.0475,35.473252,0 133.047456,35.473252,0 133.047412,35.473253,0 133.047368,35.473255,0 133.047324,35.473258,0 133.047279,35.47326,0 133.047235,35.473261,0 133.047191,35.473263,0 133.047147,35.473264,0 133.047103,35.473264,0 133.047059,35.473263,0 133.047015,35.473262,0 133.046971,35.47326,0 133.046927,35.473258,0 133.046882,35.473255,0 133.046838,35.473253,0 133.046794,35.473252,0 133.04675,35.473251,0 133.046706,35.47325,0 133.046662,35.473248,0 133.046619,35.473244,0 133.046575,35.473238,0 133.046533,35.473226,0 133.046496,35.473207,0 133.046467,35.47318,0 133.046448,35.473148,0 133.046436,35.473114,0 133.046429,35.473078,0 133.046424,35.473042,0 133.04642,35.473006,0 133.046417,35.47297,0 133.046414,35.472934,0 133.046411,35.472898,0 133.046408,35.472862,0 133.046406,35.472826,0 133.046404,35.47279,0 133.0464,35.472754,0 133.046398,35.472718,0 133.046395,35.472682,0 133.046392,35.472646,0 133.046389,35.472611,0 133.046386,35.472575,0 133.046384,35.472539,0 133.046382,35.472503,0 133.046378,35.472467,0 133.046376,35.47243,0 133.046373,35.472394,0 133.046371,35.472358,0 133.046367,35.472322,0 133.046365,35.472286,0 133.046364,35.47225,0 133.046362,35.472214,0 133.046361,35.472178,0 133.046359,35.472142,0 133.046356,35.472106,0 133.046354,35.47207,0 133.046351,35.472035,0 133.046349,35.471999,0 133.046345,35.471963,0 133.046343,35.471927,0 133.046342,35.471891,0 133.046341,35.471855,0 133.04634,35.471818,0 133.04634,35.471782,0 133.04634,35.471746,0 133.04634,35.47171,0 133.046341,35.471674,0 133.046342,35.471638,0 133.046344,35.471602,0 133.046347,35.471566,0 133.046351,35.47153,0 133.046355,35.471494,0 133.04636,35.471458,0 133.046363,35.471423,0 133.046364,35.471387,0 133.046362,35.471351,0 133.046354,35.471315,0 133.04634,35.471281,0 133.046319,35.47125,0 133.04629,35.471222,0 133.046256,35.471199,0 133.046218,35.47118,0 133.046179,35.471164,0 133.046138,35.471152,0 133.046096,35.47114,0 133.046054,35.471129,0 133.046011,35.471119,0 133.045969,35.471108,0 133.045927,35.471097,0 133.045885,35.471086,0 133.045845,35.471072,0 133.045805,35.471057,0 133.045766,35.471039,0 133.045732,35.471017,0 133.045702,35.47099,0 133.045681,35.470959,0 133.045669,35.470924,0 133.045665,35.470888,0 133.045667,35.470852,0 133.045672,35.470816,0 133.045681,35.470781,0 133.045691,35.470746,0 133.045702,35.470711,0 133.045713,35.470676,0 133.045724,35.470641,0 133.045735,35.470606,0 133.045747,35.470572,0 133.045759,35.470537,0 133.045771,35.470503,0 133.045783,35.470467,0 133.045795,35.470433,0 133.045807,35.470398,0 133.04582,35.470364,0 133.045831,35.470329,0 133.045843,35.470294,0 133.045856,35.470259,0 133.045868,35.470225,0 133.045879,35.47019,0 133.045891,35.470156,0 133.045903,35.47012,0 133.045914,35.470086,0 133.045926,35.470051,0 133.045938,35.470016,0 133.045949,35.469982,0 133.045961,35.469946,0 133.045972,35.469912,0 133.045985,35.469877,0 133.045996,35.469842,0 133.046008,35.469808,0 133.046019,35.469773,0 133.046031,35.469738,0 133.046043,35.469703,0 133.046054,35.469669,0 133.046066,35.469634,0 133.046078,35.469599,0 133.046091,35.469564,0 133.046103,35.46953,0 133.046115,35.469495,0 133.046127,35.469461,0 133.046139,35.469426,0 133.046151,35.469391,0 133.046163,35.469356,0 133.046175,35.469322,0 133.046188,35.469287,0 133.0462,35.469252,0 133.046213,35.469218,0 133.046227,35.469184,0 133.046242,35.46915,0 133.046258,35.469116,0 133.046274,35.469083,0 133.046291,35.46905,0 133.046309,35.469016,0 133.046327,35.468984,0 133.046343,35.468951,0 133.046361,35.468917,0 133.046376,35.468883,0 133.046391,35.468849,0 133.046403,35.468814,0 133.046415,35.46878,0 133.046425,35.468745,0 133.046435,35.46871,0 133.046442,35.468674,0 133.046451,35.468639,0 133.046459,35.468604,0 133.046467,35.468567,0 133.046474,35.468532,0 133.046481,35.468497,0 133.046489,35.468461,0 133.046495,35.468426,0 133.046503,35.46839,0 133.04651,35.468355,0 133.046517,35.468319,0 133.046524,35.468284,0 133.046531,35.468247,0 133.046538,35.468212,0 133.046545,35.468176,0 133.046553,35.468141,0 133.04656,35.468105,0 133.046567,35.46807,0 133.046575,35.468034,0 133.046582,35.467999,0 133.046591,35.467964,0 133.0466,35.467928,0 133.046609,35.467893,0 133.04662,35.467858,0 133.046632,35.467823,0 133.046644,35.467789,0 133.046659,35.467754,0 133.046675,35.467721,0 133.046692,35.467688,0 133.046709,35.467654,0 133.046728,35.467622,0 133.046748,35.46759,0 133.046768,35.467557,0 133.046788,35.467526,0 133.046807,35.467493,0 133.046827,35.467462,0 133.046847,35.467429,0 133.046867,35.467397,0 133.046886,35.467363,0 133.046903,35.467331,0 133.046921,35.467298,0 133.046938,35.467264,0 133.046954,35.467231,0 133.04697,35.467197,0 133.046986,35.467163,0 133.047002,35.46713,0 133.047017,35.467097,0 133.047031,35.467062,0 133.047048,35.467029,0 133.047063,35.466995,0 133.04708,35.466961,0 133.047099,35.466929,0 133.04712,35.466897,0 133.047143,35.466867,0 133.047169,35.466838,0 133.047201,35.466814,0 133.047239,35.466795,0 133.047282,35.466784,0 133.047325,35.466782,0 133.047369,35.466787,0 133.047411,35.466797,0 133.047452,35.466811,0 133.047491,35.466826,0 133.047531,35.466843,0 133.04757,35.46686,0 133.047608,35.466878,0 133.047647,35.466896,0 133.047685,35.466913,0 133.047724,35.46693,0 133.047764,35.466947,0 133.047802,35.466963,0 133.047842,35.46698,0 133.047881,35.466996,0 133.04792,35.467013,0 133.047959,35.46703,0 133.047999,35.467046,0 133.048037,35.467062,0 133.048077,35.467079,0 133.048117,35.467095,0 133.048156,35.467111,0 133.048195,35.467127,0 133.048235,35.467142,0 133.048274,35.467159,0 133.048315,35.467174,0 133.048355,35.467189,0 133.048395,35.467204,0 133.048435,35.467219,0 133.048475,35.467234,0 133.048515,35.467249,0 133.048556,35.467264,0 133.048595,35.467279,0 133.048635,35.467294,0 133.048676,35.467309,0 133.048715,35.467325,0 133.048755,35.467341,0 133.048795,35.467357,0 133.048834,35.467373,0 133.048873,35.467389,0 133.048913,35.467406,0 133.048952,35.467422,0 133.048991,35.467437,0 133.049031,35.467453,0 133.049072,35.467468,0 133.049113,35.467482,0 133.049153,35.467494,0 133.049196,35.467504,0 133.049239,35.467512,0 133.049282,35.467518,0 133.049327,35.467523,0 133.049371,35.467526,0 133.049414,35.46753,0 133.049458,35.467535,0 133.049501,35.467541,0 133.049544,35.467549,0 133.049587,35.467559,0 133.049629,35.467571,0 133.04967,35.467583,0 133.049711,35.467596,0 133.049752,35.46761,0 133.049792,35.467624,0 133.049833,35.467638,0 133.049874,35.467653,0 133.049914,35.467667,0 133.049954,35.467681,0 133.049994,35.467697,0 133.050035,35.467712,0 133.050074,35.467727,0 133.050114,35.467742,0 133.050155,35.467757,0 133.050195,35.467772,0 133.050235,35.467786,0 133.050276,35.4678,0 133.050316,35.467815,0 133.050357,35.467829,0 133.050397,35.467843,0 133.050438,35.467857,0 133.050478,35.467872,0 133.050519,35.467887,0 133.050559,35.467901,0 133.050599,35.467916,0 133.050639,35.46793,0 133.05068,35.467946,0 133.050721,35.46796,0 133.05076,35.467974,0 133.050801,35.467989,0 133.050842,35.468003,0 133.050882,35.468018,0 133.050922,35.468032,0 133.050963,35.468046,0 133.051003,35.46806,0 133.051044,35.468074,0 133.051085,35.468088,0 133.051125,35.468101,0 133.051167,35.468114,0 133.051209,35.468125,0 133.051251,35.468136,0 133.051294,35.468145,0 133.051337,35.468151,0 133.051381,35.468155,0 133.051425,35.468156,0 133.05147,35.468152,0 133.051513,35.468145,0 133.051553,35.468132,0 133.051593,35.468115,0 133.051628,35.468093,0 133.051659,35.468069,0 133.051688,35.46804,0 133.051711,35.46801,0 133.051733,35.467979,0 133.051751,35.467946,0 133.051768,35.467913,0 133.051785,35.46788,0 133.0518,35.467846,0 133.051817,35.467812,0 133.051833,35.467779,0 133.05185,35.467745,0 133.051868,35.467712,0 133.051884,35.467679,0 133.0519,35.467645,0 133.051915,35.467611,0 133.051931,35.467578,0 133.051945,35.467544,0 133.051958,35.467509,0 133.051971,35.467474,0 133.051983,35.46744,0 133.051996,35.467406,0 133.052008,35.467371,0 133.05202,35.467336,0 133.052032,35.467301,0 133.052045,35.467267,0 133.052057,35.467233,0 133.05207,35.467197,0 133.052082,35.467163,0 133.052094,35.467128,0 133.052106,35.467094,0 133.052117,35.467059,0 133.052129,35.467024,0 133.052141,35.466989,0 133.052152,35.466955,0 133.052164,35.46692,0 133.052177,35.466886,0 133.052189,35.46685,0 133.052201,35.466816,0 133.052213,35.466781,0 133.052225,35.466747,0 133.052237,35.466712,0 133.052249,35.466677,0 133.052261,35.466642,0 133.052274,35.466608,0 133.052286,35.466573,0 133.052298,35.466539,0 133.05231,35.466503,0 133.052322,35.466469,0 133.052334,35.466435,0 133.052346,35.4664,0 133.052358,35.466366,0 133.052371,35.46633,0 133.052383,35.466296,0 133.052394,35.466261,0 133.052406,35.466227,0 133.052418,35.466192,0 133.05243,35.466156,0 133.052441,35.466122,0 133.052454,35.466088,0 133.052467,35.466053,0 133.052479,35.466019,0 133.052491,35.465983,0 133.052503,35.465949,0 133.052515,35.465914,0 133.052527,35.46588,0 133.052539,35.465845,0 133.05255,35.46581,0 133.052563,35.465775,0 133.052575,35.465741,0 133.052587,35.465707,0 133.0526,35.465672,0 133.052612,35.465637,0 133.052624,35.465602,0 133.052636,35.465568,0 133.052649,35.465533,0 133.052661,35.465499,0 133.052673,35.465463,0 133.052684,35.465429,0 133.052696,35.465394,0 133.052709,35.46536,0 133.052721,35.465325,0 133.052733,35.46529,0 133.052747,35.465256,0 133.052759,35.465222,0 133.052772,35.465187,0 133.052784,35.465152,0 133.052797,35.465118,0 133.05281,35.465083,0 133.052822,35.465049,0 133.052835,35.465015,0 133.052847,35.464979,0 133.052859,35.464945,0 133.052872,35.46491,0 133.052885,35.464876,0 133.052897,35.464841,0 133.052909,35.464806,0 133.052922,35.464772,0 133.052934,35.464738,0 133.052947,35.464703,0 133.05296,35.464668,0 133.052973,35.464634,0 133.052985,35.464599,0 133.052997,35.464565,0 133.05301,35.464531,0 133.053021,35.464495,0 133.053033,35.464461,0 133.053045,35.464426,0 133.053056,35.464391,0 133.053067,35.464356,0 133.053078,35.464321,0 133.053088,35.464286,0 133.053099,35.464251,0 133.053108,35.464216,0 133.053118,35.464181,0 133.053128,35.464146,0 133.053138,35.464111,0 133.053148,35.464075,0 133.053157,35.46404,0 133.053167,35.464005,0 133.053176,35.46397,0 133.053185,35.463934,0 133.053193,35.463899,0 133.053201,35.463864,0 133.053209,35.463828,0 133.053217,35.463792,0 133.053223,35.463757,0 133.05323,35.463721,0 133.053236,35.463685,0 133.053243,35.46365,0 133.053249,35.463614,0 133.053255,35.463579,0 133.053262,35.463543,0 133.05327,35.463508,0 133.053278,35.463472,0 133.053288,35.463437,0 133.053302,35.463402,0 133.053316,35.463369,0 133.053333,35.463335,0 133.053352,35.463303,0 133.053371,35.46327,0 133.05339,35.463238,0 133.053407,35.463205,0 133.053424,35.463171,0 133.053437,35.463136,0 133.053448,35.463102,0 133.053457,35.463067,0 133.053465,35.463031,0 133.053472,35.462996,0 133.053478,35.46296,0 133.053485,35.462924,0 133.05349,35.462888,0 133.053496,35.462852,0 133.053501,35.462817,0 133.053507,35.462781,0 133.053512,35.462745,0 133.053518,35.462709,0 133.053522,35.462674,0 133.053528,35.462638,0 133.053533,35.462602,0 133.053539,35.462567,0 133.053545,35.462531,0 133.053551,35.462494,0 133.053557,35.462459,0 133.053564,35.462423,0 133.053571,35.462388,0 133.053577,35.462352,0 133.053585,35.462317,0 133.053593,35.462281,0 133.0536,35.462246,0 133.053608,35.462211,0 133.053616,35.462174,0 133.053624,35.462139,0 133.05363,35.462103,0 133.053638,35.462068,0 133.053646,35.462032,0 133.053652,35.461997,0 133.053659,35.461961,0 133.053665,35.461926,0 133.053672,35.46189,0 133.053679,35.461855,0 133.053685,35.461818,0 133.053692,35.461783,0 133.053697,35.461747,0 133.053704,35.461711,0 133.05371,35.461676,0 133.053716,35.46164,0 133.053722,35.461604,0 133.053727,35.461569,0 133.053732,35.461533,0 133.053737,35.461497,0 133.053743,35.461462,0 133.053749,35.461426,0 133.053755,35.461389,0 133.05376,35.461354,0 133.053767,35.461318,0 133.053772,35.461283,0 133.053779,35.461247,0 133.053785,35.461211,0 133.05379,35.461176,0 133.053796,35.46114,0 133.053801,35.461104,0 133.053807,35.461068,0 133.053811,35.461033,0 133.053815,35.460996,0 133.05382,35.46096,0 133.053824,35.460924,0 133.053828,35.460888,0 133.053831,35.460853,0 133.053834,35.460817,0 133.053836,35.460781,0 133.053838,35.460745,0 133.053839,35.460709,0 133.05384,35.460673,0 133.05384,35.460637,0 133.05384,35.460601,0 133.05384,35.460565,0 133.05384,35.460529,0 133.05384,35.460493,0 133.05384,35.460457,0 133.05384,35.460421,0 133.05384,35.460384,0 133.053839,35.460348,0 133.053838,35.460312,0 133.053836,35.460276,0 133.053834,35.46024,0 133.053831,35.460204,0 133.053828,35.460168,0 133.053822,35.460132,0 133.053817,35.460097,0 133.05381,35.460061,0 133.053802,35.460026,0 133.053795,35.45999,0 133.053786,35.459955,0 133.053776,35.459919,0 133.053765,35.459884,0 133.053754,35.45985,0 133.053742,35.459815,0 133.053728,35.459781,0 133.053714,35.459746,0 133.0537,35.459713,0 133.053684,35.459679,0 133.053669,35.459645,0 133.053653,35.459611,0 133.053638,35.459578,0 133.053622,35.459544,0 133.053608,35.459509,0 133.053594,35.459476,0 133.053578,35.459442,0 133.053563,35.459407,0 133.053547,35.459374,0 133.053531,35.459341,0 133.053514,35.459307,0 133.053496,35.459275,0 133.053476,35.459243,0 133.053455,35.459211,0 133.053432,35.45918,0 133.053404,35.459152,0 133.053374,35.459125,0 133.053341,35.459102,0 133.053304,35.459083,0 133.053263,35.459069,0 133.053221,35.459058,0 133.053178,35.459051,0 133.053134,35.459048,0 133.05309,35.459046,0 133.053046,35.459045,0 133.053002,35.459045,0 133.052957,35.459045,0 133.052913,35.459044,0 133.052869,35.459044,0 133.052825,35.459043,0 133.052781,35.459042,0 133.052737,35.45904,0 133.052693,35.459038,0 133.052649,35.459034,0 133.052606,35.459032,0 133.052561,35.459027,0 133.052517,35.459023,0 133.052474,35.459017,0 133.05243,35.459011,0 133.052387,35.459004,0 133.052344,35.458995,0 133.052302,35.458985,0 133.052259,35.458975,0 133.052217,35.458964,0 133.052177,35.458951,0 133.052135,35.45894,0 133.052094,35.458926,0 133.052053,35.458913,0 133.052012,35.458898,0 133.051971,35.458884,0 133.051932,35.458868,0 133.051892,35.458853,0 133.051852,35.458837,0 133.051814,35.458821,0 133.051774,35.458804,0 133.051735,35.458786,0 133.051697,35.458769,0 133.051658,35.458751,0 133.051621,35.458732,0 133.051583,35.458713,0 133.051547,35.458694,0 133.05151,35.458674,0 133.051474,35.458652,0 133.05144,35.458631,0 133.051404,35.458608,0 133.051371,35.458585,0 133.051338,35.45856,0 133.051305,35.458536,0 133.051273,35.458512,0 133.051242,35.458486,0 133.05121,35.458461,0 133.051181,35.458435,0 133.05115,35.458408,0 133.051121,35.458382,0 133.051091,35.458355,0 133.051064,35.458327,0 133.051035,35.458299,0 133.051009,35.458271,0 133.050981,35.458242,0 133.050956,35.458213,0 133.05093,35.458184,0 133.050905,35.458154,0 133.050881,35.458123,0 133.050857,35.458092,0 133.050835,35.458062,0 133.050813,35.45803,0 133.050792,35.457999,0 133.050772,35.457966,0 133.050753,35.457934,0 133.050734,35.457901,0 133.050715,35.457869,0 133.050696,35.457837,0 133.050679,35.457803,0 133.050661,35.457771,0 133.050643,35.457737,0 133.050626,35.457704,0 133.050609,35.457671,0 133.050593,35.457637,0 133.050576,35.457604,0 133.05056,35.457571,0 133.050544,35.457537,0 133.050528,35.457503,0 133.050511,35.45747,0 133.050496,35.457436,0 133.050479,35.457403,0 133.050464,35.457369,0 133.050447,35.457335,0 133.050432,35.457302,0 133.050416,35.457268,0 133.0504,35.457234,0 133.050384,35.457201,0 133.050368,35.457167,0 133.050352,35.457133,0 133.050337,35.4571,0 133.05032,35.457066,0 133.050305,35.457033,0 133.050289,35.456999,0 133.050273,35.456965,0 133.050257,35.456932,0 133.050242,35.456898,0 133.050225,35.456864,0 133.05021,35.456831,0 133.050193,35.456797,0 133.050178,35.456763,0 133.050163,35.45673,0 133.050146,35.456696,0 133.050131,35.456662,0 133.050115,35.456629,0 133.050099,35.456595,0 133.050083,35.456561,0 133.050068,35.456528,0 133.050051,35.456494,0 133.050035,35.456461,0 133.050019,35.456427,0 133.050003,35.456394,0 133.049986,35.45636,0 133.049971,35.456327,0 133.049954,35.456293,0 133.049938,35.456259,0 133.049921,35.456226,0 133.049906,35.456193,0 133.049889,35.456159,0 133.049872,35.456126,0 133.049857,35.456092,0 133.04984,35.456058,0 133.049825,35.456025,0 133.049809,35.455992,0 133.049792,35.455957,0 133.049777,35.455924,0 133.04976,35.455891,0 133.049745,35.455857,0 133.049728,35.455823,0 133.049711,35.45579,0 133.049696,35.455756,0 133.049681,35.455723,0 133.049664,35.455689,0 133.049649,35.455655,0 133.049633,35.455621,0 133.049619,35.455588,0 133.049603,35.455553,0 133.049588,35.455519,0 133.049574,35.455486,0 133.049559,35.455452,0 133.049544,35.455417,0 133.049529,35.455384,0 133.049514,35.45535,0 133.049499,35.455316,0 133.049484,35.455282,0 133.049468,35.455248,0 133.049452,35.455215,0 133.049437,35.455181,0 133.049421,35.455147,0 133.049406,35.455114,0 133.049392,35.455079,0 133.049377,35.455045,0 133.049362,35.455011,0 133.049349,35.454978,0 133.049334,35.454943,0 133.04932,35.454909,0 133.049307,35.454875,0 133.049292,35.454841,0 133.049278,35.454806,0 133.049264,35.454772,0 133.04925,35.454738,0 133.049236,35.454704,0 133.049222,35.454669,0 133.049207,35.454636,0 133.049193,35.454602,0 133.04918,35.454567,0 133.049165,35.454533,0 133.049152,35.454499,0 133.049138,35.454465,0 133.049124,35.45443,0 133.049109,35.454396,0 133.049095,35.454362,0 133.049081,35.454328,0 133.049067,35.454293,0 133.049053,35.454259,0 133.049039,35.454225,0 133.049025,35.454191,0 133.049011,35.454156,0 133.048998,35.454122,0 133.048984,35.454089,0 133.048969,35.454055,0 133.048955,35.45402,0 133.04894,35.453986,0 133.048926,35.453952,0 133.048912,35.453918,0 133.048899,35.453883,0 133.048884,35.453849,0 133.048871,35.453815,0 133.048857,35.453781,0 133.048843,35.453746,0 133.048829,35.453713,0 133.048815,35.453679,0 133.0488,35.453645,0 133.048786,35.45361,0 133.048772,35.453576,0 133.048759,35.453542,0 133.048745,35.453508,0 133.048734,35.453472,0 133.048725,35.453437,0 133.048721,35.453401,0 133.048722,35.453365,0 133.048732,35.45333,0 133.048751,35.453298,0 133.048779,35.45327,0 133.048814,35.453248,0 133.048852,35.453229,0 133.048892,35.453214,0 133.048932,35.453199,0 133.048974,35.453187,0 133.049014,35.453174,0 133.049056,35.453161,0 133.049097,35.453149,0 133.049139,35.453136,0 133.04918,35.453124,0 133.049221,35.45311,0 133.049263,35.453097,0 133.049303,35.453084,0 133.049344,35.453071,0 133.049385,35.453059,0 133.049427,35.453045,0 133.049468,35.453033,0 133.04951,35.45302,0 133.04955,35.453006,0 133.049591,35.452994,0 133.049633,35.452981,0 133.049674,35.452969,0 133.049716,35.452956,0 133.049757,35.452943,0 133.049797,35.45293,0 133.049839,35.452917,0 133.04988,35.452905,0 133.049922,35.452892,0 133.049963,35.452879,0 133.050005,35.452868,0 133.050048,35.45286,0 133.050092,35.452856,0 133.050136,35.452856,0 133.050179,35.452865,0 133.050218,35.452882,0 133.05025,35.452906,0 133.050277,35.452934,0 133.050299,35.452966,0 133.050319,35.452997,0 133.050337,35.453031,0 133.050353,35.453064,0 133.05037,35.453097,0 133.050385,35.453132,0 133.050401,35.453165,0 133.050416,35.453199,0 133.050432,35.453233,0 133.050447,35.453267,0 133.050461,35.4533,0 133.050477,35.453334,0 133.050491,35.453369,0 133.050507,35.453402,0 133.050522,35.453436,0 133.050536,35.45347,0 133.050552,35.453504,0 133.050567,35.453537,0 133.050583,35.453572,0 133.050599,35.453605,0 133.050615,35.453639,0 133.05063,35.453672,0 133.050646,35.453706,0 133.050661,35.45374,0 133.050677,35.453773,0 133.050692,35.453808,0 133.050709,35.453841,0 133.050727,35.453873,0 133.050748,35.453905,0 133.050774,35.453935,0 133.050803,35.453961,0 133.05084,35.453982,0 133.050882,35.453992,0 133.050926,35.453995,0 133.050969,35.453991,0 133.051012,35.453982,0 133.051054,35.453969,0 133.051095,35.453955,0 133.051134,35.453941,0 133.051176,35.453928,0 133.051218,35.453918,0 133.051261,35.453911,0 133.051305,35.453912,0 133.051346,35.453925,0 133.05138,35.453948,0 133.051402,35.453979,0 133.051417,35.454013,0 133.051423,35.454048,0 133.051427,35.454084,0 133.051425,35.45412,0 133.051423,35.454156,0 133.051419,35.454193,0 133.051414,35.454229,0 133.05141,35.454264,0 133.051406,35.4543,0 133.051402,35.454336,0 133.051399,35.454372,0 133.051397,35.454408,0 133.051397,35.454444,0 133.051398,35.45448,0 133.051401,35.454516,0 133.051406,35.454552,0 133.051412,35.454587,0 133.05142,35.454623,0 133.051429,35.454658,0 133.05144,35.454693,0 133.051451,35.454728,0 133.051464,35.454762,0 133.051477,35.454797,0 133.05149,35.454832,0 133.051505,35.454866,0 133.05152,35.454899,0 133.051536,35.454932,0 133.051552,35.454966,0 133.05157,35.454999,0 133.05159,35.455032,0 133.05161,35.455064,0 133.051632,35.455095,0 133.051655,35.455125,0 133.05168,35.455155,0 133.051706,35.455185,0 133.051733,35.455213,0 133.051762,35.45524,0 133.051792,35.455267,0 133.051822,35.455292,0 133.051856,35.455316,0 133.051889,35.455341,0 133.051923,35.455363,0 133.051958,35.455385,0 133.051993,35.455406,0 133.052031,35.455426,0 133.052067,35.455445,0 133.052106,35.455464,0 133.052143,35.455482,0 133.052182,35.4555,0 133.05222,35.455518,0 133.052258,35.455536,0 133.052297,35.455554,0 133.052334,35.455572,0 133.052372,35.455591,0 133.052409,35.455611,0 133.052446,35.455631,0 133.052482,35.455651,0 133.052518,35.455672,0 133.052553,35.455694,0 133.052588,35.455717,0 133.052622,35.455739,0 133.052655,35.455763,0 133.052688,35.455787,0 133.052721,35.45581,0 133.052754,35.455835,0 133.052786,35.455859,0 133.05282,35.455883,0 133.052853,35.455907,0 133.052886,35.45593,0 133.05292,35.455954,0 133.052953,35.455977,0 133.052987,35.456,0 133.053022,35.456022,0 133.053057,35.456045,0 133.053091,35.456067,0 133.053125,35.45609,0 133.053159,35.456113,0 133.053193,35.456136,0 133.053229,35.456158,0 133.053263,35.456181,0 133.053297,35.456203,0 133.053331,35.456226,0 133.053365,35.456248,0 133.0534,35.456271,0 133.053434,35.456294,0 133.053468,35.456317,0 133.053502,35.456339,0 133.053536,35.456362,0 133.053571,35.456384,0 133.053606,35.456407,0 133.05364,35.45643,0 133.053675,35.456452,0 133.053711,35.456474,0 133.053746,35.456495,0 133.053781,35.456516,0 133.053817,35.456538,0 133.053853,35.456558,0 133.053888,35.45658,0 133.053924,35.456602,0 133.053958,35.456624,0 133.053992,35.456647,0 133.054025,35.45667,0 133.054058,35.456695,0 133.054089,35.456721,0 133.054119,35.456747,0 133.054149,35.456774,0 133.054175,35.456803,0 133.054202,35.456832,0 133.054226,35.456861,0 133.05425,35.456892,0 133.054272,35.456923,0 133.054293,35.456954,0 133.054314,35.456987,0 133.054335,35.457018,0 133.054356,35.457051,0 133.054376,35.457082,0 133.054396,35.457115,0 133.054417,35.457146,0 133.054438,35.457178,0 133.054458,35.45721,0 133.054478,35.457242,0 133.054499,35.457273,0 133.05452,35.457306,0 133.05454,35.457337,0 133.054561,35.457369,0 133.054581,35.457401,0 133.054601,35.457434,0 133.054622,35.457465,0 133.054642,35.457498,0 133.054661,35.45753,0 133.054681,35.457562,0 133.054701,35.457594,0 133.054721,35.457626,0 133.054741,35.457658,0 133.054762,35.45769,0 133.054782,35.457722,0 133.054802,35.457754,0 133.054821,35.457787,0 133.054841,35.457819,0 133.05486,35.457851,0 133.05488,35.457883,0 133.0549,35.457916,0 133.05492,35.457948,0 133.054938,35.457981,0 133.054958,35.458013,0 133.054978,35.458046,0 133.054998,35.458077,0 133.055018,35.45811,0 133.055038,35.458142,0 133.055056,35.458174,0 133.055076,35.458207,0 133.055096,35.458238,0 133.055116,35.458271,0 133.055136,35.458303,0 133.055156,35.458336,0 133.055175,35.458367,0 133.055195,35.4584,0 133.055214,35.458432,0 133.055234,35.458465,0 133.055254,35.458497,0 133.055274,35.458529,0 133.055293,35.458561,0 133.055312,35.458594,0 133.055331,35.458626,0 133.05535,35.458659,0 133.055367,35.458692,0 133.055385,35.458725,0 133.055403,35.458759,0 133.055421,35.458791,0 133.055443,35.458823,0 133.055469,35.458851,0 133.055501,35.458877,0 133.055537,35.458897,0 133.055577,35.458912,0 133.055619,35.458923,0 133.055663,35.458929,0 133.055706,35.458932,0 133.05575,35.458935,0 133.055794,35.458936,0 133.055838,35.458937,0 133.055882,35.458937,0 133.055926,35.458937,0 133.055971,35.458937,0 133.056015,35.458937,0 133.056059,35.458937,0 133.056103,35.458937,0 133.056147,35.458937,0 133.056191,35.458936,0 133.056235,35.458935,0 133.056279,35.458934,0 133.056324,35.458932,0 133.056368,35.45893,0 133.056412,35.458928,0 133.056456,35.458925,0 133.0565,35.458923,0 133.056544,35.458922,0 133.056588,35.458921,0 133.056632,35.45892,0 133.056676,35.45892,0 133.056721,35.458922,0 133.056765,35.458924,0 133.056808,35.458931,0 133.056851,35.45894,0 133.05689,35.458955,0 133.056927,35.458976,0 133.056957,35.459002,0 133.05698,35.459033,0 133.056997,35.459065,0 133.05701,35.4591,0 133.057017,35.459135,0 133.057024,35.459171,0 133.057028,35.459207,0 133.057032,35.459243,0 133.057035,35.459279,0 133.057038,35.459315,0 133.057042,35.459351,0 133.057044,35.459387,0 133.057047,35.459423,0 133.05705,35.459459,0 133.057053,35.459495,0 133.057055,35.459531,0 133.057058,35.459567,0 133.05706,35.459603,0 133.057063,35.459639,0 133.057065,35.459674,0 133.057068,35.45971,0 133.05707,35.459746,0 133.057074,35.459782,0 133.057076,35.459818,0 133.057079,35.459855,0 133.057081,35.459891,0 133.057085,35.459927,0 133.057087,35.459963,0 133.05709,35.459999,0 133.057092,35.460035,0 133.057096,35.460071,0 133.0571,35.460106,0 133.057103,35.460142,0 133.057107,35.460178,0 133.05711,35.460214,0 133.057114,35.46025,0 133.057118,35.460286,0 133.05712,35.460322,0 133.057123,35.460358,0 133.057126,35.460394,0 133.057129,35.46043,0 133.057132,35.460466,0 133.057135,35.460502,0 133.057138,35.460538,0 133.057141,35.460574,0 133.057143,35.46061,0 133.057146,35.460646,0 133.057149,35.460682,0 133.057151,35.460718,0 133.057153,35.460754,0 133.057156,35.46079,0 133.057158,35.460826,0 133.057162,35.460862,0 133.057164,35.460897,0 133.057165,35.460933,0 133.057166,35.460969,0 133.057165,35.461005,0 133.057163,35.461042,0 133.05716,35.461078,0 133.057154,35.461114,0 133.057149,35.46115,0 133.057142,35.461185,0 133.057135,35.461221,0 133.05713,35.461256,0 133.057126,35.461292,0 133.057125,35.461328,0 133.057129,35.461364,0 133.057136,35.4614,0 133.057146,35.461435,0 133.05716,35.46147,0 133.057175,35.461503,0 133.05719,35.461537,0 133.057206,35.461571,0 133.05722,35.461605,0 133.057232,35.461639,0 133.057241,35.461674,0 133.057248,35.46171,0 133.057251,35.461746,0 133.057252,35.461782,0 133.05725,35.461818,0 133.057247,35.461855,0 133.057242,35.46189,0 133.057237,35.461926,0 133.057231,35.461962,0 133.057226,35.461997,0 133.057219,35.462033,0 133.057215,35.462069,0 133.057209,35.462105,0 133.057204,35.46214,0 133.057198,35.462176,0 133.057193,35.462212,0 133.057187,35.462247,0 133.057181,35.462284,0 133.057175,35.46232,0 133.057168,35.462355,0 133.057163,35.462391,0 133.057156,35.462426,0 133.057151,35.462462,0 133.057144,35.462498,0 133.057139,35.462533,0 133.057132,35.462569,0 133.057126,35.462605,0 133.057121,35.46264,0 133.057114,35.462677,0 133.057109,35.462712,0 133.057103,35.462748,0 133.057097,35.462784,0 133.05709,35.462819,0 133.057085,35.462855,0 133.057078,35.46289,0 133.057071,35.462926,0 133.057064,35.462961,0 133.057057,35.462997,0 133.05705,35.463033,0 133.057044,35.463069,0 133.057036,35.463105,0 133.057029,35.46314,0 133.057023,35.463176,0 133.057016,35.463211,0 133.05701,35.463247,0 133.057003,35.463282,0 133.056997,35.463318,0 133.056991,35.463353,0 133.056984,35.463389,0 133.056979,35.463426,0 133.056972,35.463461,0 133.056965,35.463497,0 133.056959,35.463532,0 133.056951,35.463568,0 133.056945,35.463603,0 133.056938,35.463639,0 133.05693,35.463674,0 133.056924,35.46371,0 133.056918,35.463745,0 133.056913,35.463782,0 133.05691,35.463818,0 133.056913,35.463854,0 133.05692,35.463889,0 133.056935,35.463923,0 133.056957,35.463954,0 133.056988,35.463981,0 133.057023,35.464001,0 133.057063,35.464017,0 133.057104,35.464028,0 133.057147,35.464036,0 133.05719,35.464042,0 133.057235,35.464046,0 133.057279,35.464048,0 133.057323,35.464051,0 133.057367,35.464054,0 133.057411,35.464056,0 133.057455,35.464057,0 133.057499,35.464059,0 133.057543,35.464061,0 133.057588,35.464064,0 133.057632,35.464065,0 133.057675,35.464068,0 133.057719,35.46407,0 133.057763,35.464073,0 133.057807,35.464074,0 133.057851,35.464076,0 133.057895,35.464078,0 133.057939,35.464081,0 133.057983,35.464083,0 133.058028,35.464086,0 133.058072,35.46409,0 133.058115,35.464093,0 133.058159,35.464097,0 133.058203,35.464101,0 133.058247,35.464105,0 133.05829,35.46411,0 133.058334,35.464113,0 133.058378,35.464118,0 133.058422,35.464122,0 133.058465,35.464127,0 133.05851,35.464132,0 133.058553,35.464137,0 133.058597,35.464142,0 133.058641,35.464147,0 133.058684,35.464153,0 133.058728,35.464159,0 133.058771,35.464165,0 133.058814,35.464171,0 133.058858,35.464177,0 133.058901,35.464183,0 133.058945,35.464189,0 133.058988,35.464195,0 133.059031,35.464202,0 133.059075,35.464209,0 133.059118,35.464215,0 133.059163,35.464221,0 133.059206,35.464228,0 133.059249,35.464235,0 133.059292,35.464241,0 133.059336,35.464248,0 133.059379,35.464256,0 133.059422,35.464262,0 133.059465,35.464269,0 133.059509,35.464276,0 133.059552,35.464283,0 133.059595,35.464289,0 133.059639,35.464295,0 133.059682,35.464302,0 133.059726,35.464307,0 133.059769,35.464313,0 133.059813,35.464319,0 133.059856,35.464323,0 133.0599,35.464329,0 133.059944,35.464334,0 133.059988,35.464339,0 133.060032,35.464344,0 133.060075,35.464349,0 133.060119,35.464354,0 133.060163,35.464359,0 133.060206,35.464365,0 133.06025,35.464369,0 133.060293,35.464375,0 133.060337,35.46438,0 133.06038,35.464385,0 133.060424,35.464391,0 133.060467,35.464396,0 133.060511,35.464402,0 133.060554,35.464408,0 133.060599,35.464413,0 133.060642,35.464419,0 133.060686,35.464424,0 133.06073,35.46443,0 133.060773,35.464435,0 133.060817,35.46444,0 133.06086,35.464446,0 133.060904,35.464451,0 133.060947,35.464456,0 133.060991,35.464461,0 133.061035,35.464467,0 133.061078,35.464471,0 133.061122,35.464476,0 133.061165,35.464482,0 133.06121,35.464487,0 133.061254,35.464492,0 133.061297,35.464498,0 133.06134,35.464504,0 133.061384,35.464511,0 133.061427,35.464518,0 133.06147,35.464525,0 133.061513,35.464533,0 133.061556,35.464541,0 133.061599,35.464549,0 133.061642,35.464556,0 133.061686,35.464563,0 133.061729,35.464569,0 133.061772,35.464576,0 133.061816,35.464582,0 133.061859,35.464588,0 133.061903,35.464594,0 133.061946,35.464598,0 133.06199,35.464604,0 133.062035,35.464607,0 133.062079,35.46461,0 133.062123,35.464613,0 133.062167,35.464613,0 133.062211,35.464614,0 133.062255,35.464615,0 133.062299,35.464616,0 133.062343,35.464617,0 133.062386,35.464619,0 133.062431,35.464622,0 133.062475,35.464625,0 133.062519,35.46463,0 133.062531,35.464631,0
  </coordinates></LineString></Placemark>

  <Placemark><name>スタート / ゴール</name><Point><coordinates>133.062531,35.464631,0</coordinates></Point></Placemark>
  <Placemark><name>松江駅</name><Point><coordinates>133.062531,35.464631,0</coordinates></Point></Placemark>
  <Placemark><name>くにびき大橋</name><Point><coordinates>133.065212,35.467504,0</coordinates></Point></Placemark>
  <Placemark><name>島根県庁</name><Point><coordinates>133.051978,35.472007,0</coordinates></Point></Placemark>
  <Placemark><name>松江城</name><Point><coordinates>133.054422,35.474386,0</coordinates></Point></Placemark>
  <Placemark><name>塩見縄手</name><Point><coordinates>133.048997,35.479086,0</coordinates></Point></Placemark>
  <Placemark><name>松江市役所</name><Point><coordinates>133.048274,35.467159,0</coordinates></Point></Placemark>
  <Placemark><name>宍道湖大橋</name><Point><coordinates>133.052243,35.466695,0</coordinates></Point></Placemark>
  <Placemark><name>宍道湖夕日スポット</name><Point><coordinates>133.049809,35.455992,0</coordinates></Point></Placemark>
</Document></kml>
